NORAD_CAT_ID,OBJECT_NAME,OBJECT_TYPE,EPOCH,MEAN_MOTION,ECCENTRICITY,INCLINATION,RA_OF_ASC_NODE,ARG_OF_PERICENTER,MEAN_ANOMALY,BSTAR,MEAN_MOTION_DOT,MEAN_MOTION_DDOT,TLE_LINE0,TLE_LINE1,TLE_LINE2,SEMIMAJOR_AXIS,PERIOD,APOGEE,PERIGEE,DECAYED
55749.0,STARLINK-5560,PAYLOAD,2024-03-16 22:00:00,14.96699847,0.0003016,70.0001,266.7751,273.8084,202.9583,0.0019341,0.00022107,0.0,0 STARLINK-5560,1 55749U 23028J   24076.91667824  .00022107  00000-0  19341-2 0  9999,2 55749  70.0001 266.7751 0003016 273.8084 202.9583 14.96699847  5597,6955.239,96.212,579.201,575.006,0.0
55749.0,STARLINK-5560,PAYLOAD,2024-03-17 14:00:01,14.96730923,0.0003013,70.0001,265.0985,267.4388,200.3978,-0.0017771,-0.00020381,0.0,0 STARLINK-5560,1 55749U 23028J   24077.58334491 -.00020381  00000-0 -17771-2 0  9993,2 55749  70.0001 265.0985 0003013 267.4388 200.3978 14.96730923 57870,6955.142,96.21,579.103,574.912,0.0
55749.0,STARLINK-5560,PAYLOAD,2024-03-17 22:00:00,14.96698993,0.0003024,70.0,264.26,273.7622,189.6365,0.002971,0.00034065,0.0,0 STARLINK-5560,1 55749U 23028J   24077.91667824  .00034065  00000-0  29710-2 0  9997,2 55749  70.0000 264.2600 0003024 273.7622 189.6365 14.96698993  5745,6955.241,96.212,579.209,575.003,0.0
55749.0,STARLINK-5560,PAYLOAD,2024-03-18 14:00:01,14.96741019,0.0003039,69.9999,262.5833,267.146,187.3328,-0.0021051,-0.00024119,0.0,0 STARLINK-5560,1 55749U 23028J   24078.58334491 -.00024119  00000-0 -21051-2 0  9993,2 55749  69.9999 262.5833 0003039 267.1460 187.3328 14.96741019 58022,6955.111,96.209,579.09,574.862,0.0
55749.0,STARLINK-5560,PAYLOAD,2024-03-18 22:00:00,14.96704275,0.0003073,69.9997,261.7448,273.6288,176.4177,0.0018202,0.00020798,0.0,0 STARLINK-5560,1 55749U 23028J   24078.91667824  .00020798  00000-0  18202-2 0  9990,2 55749  69.9997 261.7448 0003073 273.6288 176.4177 14.96704275  5746,6955.225,96.211,579.227,574.953,0.0
55749.0,STARLINK-5560,PAYLOAD,2024-03-19 12:00:00,14.96717174,0.0003087,69.9996,260.2778,266.5503,85.6958,0.001661,0.00018972,0.0,0 STARLINK-5560,1 55749U 23028J   24079.50001157  .00018972  00000-0  16610-2 0  9999,2 55749  69.9996 260.2778 0003087 266.5503  85.6958 14.96717174  5730,6955.185,96.211,579.197,574.903,0.0
55749.0,STARLINK-5560,PAYLOAD,2024-03-19 22:00:00,14.96701744,0.000314,69.9995,259.2297,272.8255,163.8753,0.0017334,0.00019798,0.0,0 STARLINK-5560,1 55749U 23028J   24079.91667824  .00019798  00000-0  17334-2 0  9994,2 55749  69.9995 259.2297 0003140 272.8255 163.8753 14.96701744 58227,6955.233,96.212,579.282,574.914,0.0
55749.0,STARLINK-5560,PAYLOAD,2024-03-20 10:29:26,14.96715949,0.0002807,69.9988,257.9219,263.8055,96.2783,9.2978e-06,1.5e-07,0.0,0 STARLINK-5560,1 55749U 23028J   24080.43711359  .00000015  00000-0  92978-5 0  9998,2 55749  69.9988 257.9219 0002807 263.8055  96.2783 14.96715949 58308,6955.189,96.211,579.006,575.101,0.0
55749.0,STARLINK-5560,PAYLOAD,2024-03-20 13:41:55,14.96714985,0.0002817,69.9987,257.5851,263.4014,96.6823,-2.9692e-06,-1.26e-06,0.0,0 STARLINK-5560,1 55749U 23028J   24080.57077863 -.00000126  00000-0 -29692-5 0  9996,2 55749  69.9987 257.5851 0002817 263.4014  96.6823 14.96714985 58327,6955.192,96.211,579.016,575.097,0.0
55749.0,STARLINK-5560,PAYLOAD,2024-03-20 21:43:06,14.96714697,0.0002835,69.999,256.7448,264.5096,95.5739,-8.0674e-06,-1.84e-06,0.0,0 STARLINK-5560,1 55749U 23028J   24080.90493899 -.00000184  00000-0 -80674-5 0  9995,2 55749  69.9990 256.7448 0002835 264.5096  95.5739 14.96714697 58375,6955.193,96.211,579.029,575.086,0.0
55749.0,STARLINK-5560,PAYLOAD,2024-03-21 12:09:14,14.96719538,0.0002914,69.9988,255.2318,266.7676,93.3148,4.0458e-05,3.72e-06,0.0,0 STARLINK-5560,1 55749U 23028J   24081.50642225  .00000372  00000-0  40458-4 0  9993,2 55749  69.9988 255.2318 0002914 266.7676  93.3148 14.96719538 58467,6955.178,96.21,579.069,575.016,0.0
55749.0,STARLINK-5560,PAYLOAD,2024-03-21 13:45:29,14.96719614,0.0002917,69.9988,255.0637,266.5718,93.5106,4.0862e-05,3.76e-06,0.0,0 STARLINK-5560,1 55749U 23028J   24081.57325401  .00000376  00000-0  40862-4 0  9997,2 55749  69.9988 255.0637 0002917 266.5718  93.5106 14.96719614 58479,6955.177,96.21,579.071,575.014,0.0
55749.0,STARLINK-5560,PAYLOAD,2024-03-21 20:10:23,14.96760327,0.0002547,70.001,254.394,249.6108,110.4777,8.1612e-05,8.44e-06,0.0,0 STARLINK-5560,1 55749U 23028J   24081.84055332  .00000844  00000-0  81612-4 0  9998,2 55749  70.0010 254.3940 0002547 249.6108 110.4777 14.96760327 58516,6955.051,96.208,578.688,575.145,0.0
55749.0,STARLINK-5560,PAYLOAD,2024-03-21 21:46:34,14.96799707,0.0003049,69.9988,254.2222,259.4644,100.617,0.00095571,0.00010888,0.0,0 STARLINK-5560,1 55749U 23028J   24081.90733836  .00010888  00000-0  95571-3 0  9994,2 55749  69.9988 254.2222 0003049 259.4644 100.6170 14.96799707 58524,6954.929,96.205,578.915,574.674,0.0
55749.0,STARLINK-5560,PAYLOAD,2024-03-22 12:09:58,14.98898864,0.0010557,69.9985,252.7043,253.2988,106.7013,0.024613,0.00311763,0.0,0 STARLINK-5560,1 55749U 23028J   24082.50693153  .00311763  00000-0  24613-1 0  9991,2 55749  69.9985 252.7043 0010557 253.2988 106.7013 14.98898864 58619,6948.434,96.071,577.635,562.964,0.0
55749.0,STARLINK-5560,PAYLOAD,2024-03-22 22:00:00,14.97889839,0.000307,69.9998,251.6819,274.166,125.0192,0.042318,0.00527252,0.0,0 STARLINK-5560,1 55749U 23028J   24082.91667824  .00527252  00000-0  42318-1 0  9996,2 55749  69.9998 251.6819 0003070 274.1660 125.0192 14.97889839 58672,6951.554,96.135,575.554,571.285,0.0
55749.0,STARLINK-5560,PAYLOAD,2024-03-23 06:00:00,14.98271847,0.000311,69.9999,250.8418,269.1657,127.179,0.0062906,0.00075668,0.0,0 STARLINK-5560,1 55749U 23028J   24083.25001157  .00075668  00000-0  62906-2 0  9990,2 55749  69.9999 250.8418 0003110 269.1657 127.1790 14.98271847 58722,6950.373,96.111,574.399,570.076,0.0
55749.0,STARLINK-5560,PAYLOAD,2024-03-23 22:00:00,14.9831699,0.0003237,70.0002,249.1607,272.5746,118.7,0.0016159,0.00019234,0.0,0 STARLINK-5560,1 55749U 23028J   24083.91667824  .00019234  00000-0  16159-2 0  9998,2 55749  70.0002 249.1607 0003237 272.5746 118.7000 14.98316990 58828,6950.233,96.108,574.348,569.848,0.0
55749.0,STARLINK-5560,PAYLOAD,2024-03-24 14:00:01,14.98380546,0.00033,70.0006,247.4798,268.6097,117.6219,-0.0036928,-0.00043938,0.0,0 STARLINK-5560,1 55749U 23028J   24084.58334491 -.00043938  00000-0 -36928-2 0  9999,2 55749  70.0006 247.4798 0003300 268.6097 117.6219 14.98380546  5842,6950.037,96.104,574.195,569.608,0.0
55749.0,STARLINK-5560,PAYLOAD,2024-03-24 22:00:00,14.98333562,0.0003336,70.0004,246.6391,275.9258,107.8365,-0.0022947,-0.0002737,0.0,0 STARLINK-5560,1 55749U 23028J   24084.91667824 -.00027370  00000-0 -22947-2 0  9993,2 55749  70.0004 246.6391 0003336 275.9258 107.8365 14.98333562  5747,6950.182,96.107,574.365,569.728,0.0
55749.0,STARLINK-5560,PAYLOAD,2024-03-25 06:00:00,14.98282125,0.0003317,70.0006,245.7986,271.694,109.5544,0.0057464,0.00069068,0.0,0 STARLINK-5560,1 55749U 23028J   24085.25001157  .00069068  00000-0  57464-2 0  9992,2 55749  70.0006 245.7986 0003317 271.6940 109.5544 14.98282125 59025,6950.341,96.11,574.511,569.901,0.0
55749.0,STARLINK-5560,PAYLOAD,2024-03-25 22:00:00,14.98313857,0.0003311,70.0008,244.1176,276.1067,100.1107,0.00070054,8.272e-05,0.0,0 STARLINK-5560,1 55749U 23028J   24085.91667824  .00008272  00000-0  70054-3 0  9995,2 55749  70.0008 244.1176 0003311 276.1067 100.1107 14.98313857  5744,6950.243,96.108,574.409,569.807,0.0
55749.0,STARLINK-5560,PAYLOAD,2024-03-26 12:20:56,14.9832166,0.0003161,69.9999,242.6111,271.3285,88.7512,-0.00012337,-1.564e-05,0.0,0 STARLINK-5560,1 55749U 23028J   24086.51454225 -.00001564  00000-0 -12337-3 0  9990,2 55749  69.9999 242.6111 0003161 271.3285  88.7512 14.98321660 59217,6950.219,96.108,574.281,569.887,0.0
55749.0,STARLINK-5560,PAYLOAD,2024-03-26 13:57:04,14.98322156,0.0003115,69.9998,242.4428,271.6428,88.4374,-0.0001357,-1.711e-05,0.0,0 STARLINK-5560,1 55749U 23028J   24086.58130259 -.00001711  00000-0 -13570-3 0  9999,2 55749  69.9998 242.4428 0003115 271.6428  88.4374 14.98322156 59221,6950.217,96.108,574.247,569.917,0.0
55749.0,STARLINK-5560,PAYLOAD,2024-03-26 20:21:36,14.98329394,0.0003041,70.0001,241.7695,270.3094,89.7716,-0.00010813,-1.383e-05,0.0,0 STARLINK-5560,1 55749U 23028J   24086.84833754 -.00001383  00000-0 -10813-3 0  9990,2 55749  70.0001 241.7695 0003041 270.3094  89.7716 14.98329394 59269,6950.195,96.107,574.173,569.946,0.0
55749.0,STARLINK-5560,PAYLOAD,2024-03-27 13:59:04,14.98329277,0.0002999,70.0003,239.9181,274.6073,85.4743,4.9034e-05,4.92e-06,0.0,0 STARLINK-5560,1 55749U 23028J   24087.58269427  .00000492  00000-0  49034-4 0  9998,2 55749  70.0003 239.9181 0002999 274.6073  85.4743 14.98329277 59370,6950.195,96.107,574.144,569.976,0.0
55749.0,STARLINK-5560,PAYLOAD,2024-03-27 20:23:36,14.98335186,0.000315,70.0,239.2452,272.7475,87.3323,0.00012267,1.371e-05,0.0,0 STARLINK-5560,1 55749U 23028J   24087.84972858  .00001371  00000-0  12267-3 0  9990,2 55749  70.0000 239.2452 0003150 272.7475  87.3323 14.98335186 59412,6950.177,96.107,574.231,569.853,0.0
55749.0,STARLINK-5560,PAYLOAD,2024-03-28 12:24:57,14.98326644,0.000305,70.0003,237.5615,273.8667,86.2144,0.00015625,1.772e-05,0.0,0 STARLINK-5560,1 55749U 23028J   24088.51733445  .00001772  00000-0  15625-3 0  9998,2 55749  70.0003 237.5615 0003050 273.8667  86.2144 14.98326644 59510,6950.203,96.107,574.188,569.948,0.0
55749.0,STARLINK-5560,PAYLOAD,2024-03-29 12:26:58,14.98333646,0.0003065,70.0004,235.0373,268.734,91.3468,1.1846e-05,4.8e-07,0.0,0 STARLINK-5560,1 55749U 23028J   24089.51873339  .00000048  00000-0  11846-4 0  9993,2 55749  70.0004 235.0373 0003065 268.7340  91.3468 14.98333646 59664,6950.182,96.107,574.177,569.916,0.0
55749.0,STARLINK-5560,PAYLOAD,2024-03-29 20:27:38,14.98336563,0.0003091,70.0002,234.1954,271.3564,88.7241,2.2984e-05,1.81e-06,0.0,0 STARLINK-5560,1 55749U 23028J   24089.85253062  .00000181  00000-0  22984-4 0  9998,2 55749  70.0002 234.1954 0003091 271.3564  88.7241 14.98336563 59710,6950.173,96.107,574.186,569.889,0.0
